{"type": "FeatureCollection", "features": [ {"type": "Feature", "properties": {"norad_id": 30996, "name": "FENGYUN 1C DEB", "group": "fengyun-1c-debris", "lat": -39.58168244342251, "lon": 78.97343000855163, "alt_km": 749.0521240842336, "timestamp": "2025-12-26T23:26:42.407950+00:00", "meta": {"OBJECT_NAME": "FENGYUN 1C DEB", "OBJECT_ID": "1999-025BCN", "EPOCH": "2025-12-25T16:27:19.582848", "MEAN_MOTION": 14.35474873, "ECCENTRICITY": 0.00494939, "INCLINATION": 98.9435, "RA_OF_ASC_NODE": 265.1161, "ARG_OF_PERICENTER": 253.3261, "MEAN_ANOMALY": 138.0612, "EPHEMERIS_TYPE": 0, "CLASSIFICATION_TYPE": "U", "NORAD_CAT_ID": 30996, "ELEMENT_SET_NO": 999, "REV_AT_EPOCH": 97749, "BSTAR": 0.00088809338, "MEAN_MOTION_DOT": 2.542e-05, "MEAN_MOTION_DDOT": 0}, "tle": {"line1": "1 30996U 99025BCN 25359.68564332  .00002542  00000+0  88809-3 0  9991", "line2": "2 30996  98.9435 265.1161 0049493 253.3261 138.0612 14.35474873977493"}}, "geometry": {"type": "Point", "coordinates": [78.97343000855163, -39.58168244342251]}}, {"type": "Feature", "properties": {"norad_id": 30998, "name": "FENGYUN 1C DEB", "group": "fengyun-1c-debris", "lat": 22.0586047864924, "lon": -91.30209810348673, "alt_km": 722.3985893097415, "timestamp": "2025-12-26T23:26:42.407959+00:00", "meta": {"OBJECT_NAME": "FENGYUN 1C DEB", "OBJECT_ID": "1999-025BCQ", "EPOCH": "2025-12-25T22:08:06.167040", "MEAN_MOTION": 14.4812188, "ECCENTRICITY": 0.0012703, "INCLINATION": 98.8285, "RA_OF_ASC_NODE": 83.9861, "ARG_OF_PERICENTER": 159.9387, "MEAN_ANOMALY": 262.9391, "EPHEMERIS_TYPE": 0, "CLASSIFICATION_TYPE": "U", "NORAD_CAT_ID": 30998, "ELEMENT_SET_NO": 999, "REV_AT_EPOCH": 97381, "BSTAR": 0.0024208, "MEAN_MOTION_DOT": 8.985e-05, "MEAN_MOTION_DDOT": 0}, "tle": {"line1": "1 30998U 99025BCQ 25359.92229360  .00008985  00000+0  24208-2 0  9998", "line2": "2 30998  98.8285  83.9861 0012703 159.9387 262.9391 14.48121880973818"}}, "geometry": {"type": "Point", "coordinates": [-91.30209810348673, 22.0586047864924]}}, {"type": "Feature", "properties": {"norad_id": 30999, "name": "FENGYUN 1C DEB", "group": "fengyun-1c-debris", "lat": 80.56903694369959, "lon": 101.4549231344524, "alt_km": 761.2930575379132, "timestamp": "2025-12-26T23:26:42.407968+00:00", "meta": {"OBJECT_NAME": "FENGYUN 1C DEB", "OBJECT_ID": "1999-025BCR", "EPOCH": "2025-12-25T10:49:13.395936", "MEAN_MOTION": 14.58489282, "ECCENTRICITY": 0.0112594, "INCLINATION": 99.0916, "RA_OF_ASC_NODE": 174.3725, "ARG_OF_PERICENTER": 299.2705, "MEAN_ANOMALY": 59.7274, "EPHEMERIS_TYPE": 0, "CLASSIFICATION_TYPE": "U", "NORAD_CAT_ID": 30999, "ELEMENT_SET_NO": 999, "REV_AT_EPOCH": 99016, "BSTAR": 0.00066851, "MEAN_MOTION_DOT": 3.327e-05, "MEAN_MOTION_DDOT": 0}, "tle": {"line1": "1 30999U 99025BCR 25359.45084949  .00003327  00000+0  66851-3 0  9995", "line2": "2 30999  99.0916 174.3725 0112594 299.2705  59.7274 14.58489282990161"}}, "geometry": {"type": "Point", "coordinates": [101.4549231344524, 80.56903694369959]}}, {"type": "Feature", "properties": {"norad_id": 31000, "name": "FENGYUN 1C DEB", "group": "fengyun-1c-debris", "lat": 69.26445082417726, "lon": -132.08133943772205, "alt_km": 840.4521939767355, "timestamp": "2025-12-26T23:26:42.407977+00:00", "meta": {"OBJECT_NAME": "FENGYUN 1C DEB", "OBJECT_ID": "1999-025BCS", "EPOCH": "2025-12-25T01:12:10.495008", "MEAN_MOTION": 14.09669303, "ECCENTRICITY": 0.01647769, "INCLINATION": 97.5649, "RA_OF_ASC_NODE": 25.7475, "ARG_OF_PERICENTER": 30.4254, "MEAN_ANOMALY": 24.7095, "EPHEMERIS_TYPE": 0, "CLASSIFICATION_TYPE": "U", "NORAD_CAT_ID": 31000, "ELEMENT_SET_NO": 999, "REV_AT_EPOCH": 70130, "BSTAR": 0.00053920853, "MEAN_MOTION_DOT": 1.039e-05, "MEAN_MOTION_DDOT": 0}, "tle": {"line1": "1 31000U 99025BCS 25359.05012147  .00001039  00000+0  53921-3 0  9998", "line2": "2 31000  97.5649  25.7475 0164776  30.4254  24.7095 14.09669303701304"}}, "geometry": {"type": "Point", "coordinates": [-132.08133943772205, 69.26445082417726]}}, {"type": "Feature", "properties": {"norad_id": 31001, "name": "FENGYUN 1C DEB", "group": "fengyun-1c-debris", "lat": 41.21661420685554, "lon": 63.335582871057596, "alt_km": 651.9668629477264, "timestamp": "2025-12-26T23:26:42.407986+00:00", "meta": {"OBJECT_NAME": "FENGYUN 1C DEB", "OBJECT_ID": "1999-025BCT", "EPOCH": "2025-12-26T09:30:15.176736", "MEAN_MOTION": 14.4289533, "ECCENTRICITY": 0.01472343, "INCLINATION": 99.2715, "RA_OF_ASC_NODE": 234.4775, "ARG_OF_PERICENTER": 112.4989, "MEAN_ANOMALY": 249.1861, "EPHEMERIS_TYPE": 0, "CLASSIFICATION_TYPE": "U", "NORAD_CAT_ID": 31001, "ELEMENT_SET_NO": 999, "REV_AT_EPOCH": 98403, "BSTAR": 0.00034066091, "MEAN_MOTION_DOT": 1.241e-05, "MEAN_MOTION_DDOT": 0}, "tle": {"line1": "1 31001U 99025BCT 25360.39600899  .00001241  00000+0  34066-3 0  9999", "line2": "2 31001  99.2715 234.4775 0147234 112.4989 249.1861 14.42895330984031"}}, "geometry": {"type": "Point", "coordinates": [63.335582871057596, 41.21661420685554]}}, {"type": "Feature", "properties": {"norad_id": 31002, "name": "FENGYUN 1C DEB", "group": "fengyun-1c-debris", "lat": 72.36385678578685, "lon": -138.01650317149782, "alt_km": 955.4165633539933, "timestamp": "2025-12-26T23:26:42.407995+00:00", "meta": {"OBJECT_NAME": "FENGYUN 1C DEB", "OBJECT_ID": "1999-025BCU", "EPOCH": "2025-12-20T21:37:46.056000", "MEAN_MOTION": 13.9920967, "ECCENTRICITY": 0.0098565, "INCLINATION": 98.885, "RA_OF_ASC_NODE": 6.6158, "ARG_OF_PERICENTER": 325.1028, "MEAN_ANOMALY": 152.4938, "EPHEMERIS_TYPE": 0, "CLASSIFICATION_TYPE": "U", "NORAD_CAT_ID": 31002, "ELEMENT_SET_NO": 999, "REV_AT_EPOCH": 95719, "BSTAR": 0.00023571, "MEAN_MOTION_DOT": 3.13e-06, "MEAN_MOTION_DDOT": 0}, "tle": {"line1": "1 31002U 99025BCU 25354.90122750  .00000313  00000+0  23571-3 0  9993", "line2": "2 31002  98.8850   6.6158 0098565 325.1028 152.4938 13.99209670957195"}}, "geometry": {"type": "Point", "coordinates": [-138.01650317149782, 72.36385678578685]}}, {"type": "Feature", "properties": {"norad_id": 31003, "name": "FENGYUN 1C DEB", "group": "fengyun-1c-debris", "lat": -32.68575601122133, "lon": 83.60126891683258, "alt_km": 842.1499608562617, "timestamp": "2025-12-26T23:26:42.408004+00:00", "meta": {"OBJECT_NAME": "FENGYUN 1C DEB", "OBJECT_ID": "1999-025BCV", "EPOCH": "2025-12-26T03:22:35.090688", "MEAN_MOTION": 14.2477797, "ECCENTRICITY": 0.00421242, "INCLINATION": 98.8421, "RA_OF_ASC_NODE": 77.0273, "ARG_OF_PERICENTER": 176.7656, "MEAN_ANOMALY": 183.3802, "EPHEMERIS_TYPE": 0, "CLASSIFICATION_TYPE": "U", "NORAD_CAT_ID": 31003, "ELEMENT_SET_NO": 999, "REV_AT_EPOCH": 96700, "BSTAR": 0.0013638884, "MEAN_MOTION_DOT": 3.164e-05, "MEAN_MOTION_DDOT": 0}, "tle": {"line1": "1 31003U 99025BCV 25360.14068392  .00003164  00000+0  13639-2 0  9998", "line2": "2 31003  98.8421  77.0273 0042124 176.7656 183.3802 14.24777970967003"}}, "geometry": {"type": "Point", "coordinates": [83.60126891683258, -32.68575601122133]}}, {"type": "Feature", "properties": {"norad_id": 31005, "name": "FENGYUN 1C DEB", "group": "fengyun-1c-debris", "lat": -66.70131034809259, "lon": 154.14585864342928, "alt_km": 827.084267074013, "timestamp": "2025-12-26T23:26:42.408012+00:00", "meta": {"OBJECT_NAME": "FENGYUN 1C DEB", "OBJECT_ID": "1999-025BCX", "EPOCH": "2025-12-25T08:06:17.154720", "MEAN_MOTION": 13.83315917, "ECCENTRICITY": 0.0181141, "INCLINATION": 98.6135, "RA_OF_ASC_NODE": 132.0365, "ARG_OF_PERICENTER": 290.9603, "MEAN_ANOMALY": 122.0502, "EPHEMERIS_TYPE": 0, "CLASSIFICATION_TYPE": "U", "NORAD_CAT_ID": 31005, "ELEMENT_SET_NO": 999, "REV_AT_EPOCH": 94455, "BSTAR": 0.0012807, "MEAN_MOTION_DOT": 1.556e-05, "MEAN_MOTION_DDOT": 0}, "tle": {"line1": "1 31005U 99025BCX 25359.33769855  .00001556  00000+0  12807-2 0  9990", "line2": "2 31005  98.6135 132.0365 0181141 290.9603 122.0502 13.83315917944558"}}, "geometry": {"type": "Point", "coordinates": [154.14585864342928, -66.70131034809259]}}, {"type": "Feature", "properties": {"norad_id": 31007, "name": "FENGYUN 1C DEB", "group": "fengyun-1c-debris", "lat": -77.62634884608089, "lon": 131.99542297399302, "alt_km": 706.5266493911604, "timestamp": "2025-12-26T23:26:42.408021+00:00", "meta": {"OBJECT_NAME": "FENGYUN 1C DEB", "OBJECT_ID": "1999-025BCZ", "EPOCH": "2025-12-26T05:47:25.251936", "MEAN_MOTION": 14.58925685, "ECCENTRICITY": 0.00663502, "INCLINATION": 98.0887, "RA_OF_ASC_NODE": 351.6885, "ARG_OF_PERICENTER": 356.4462, "MEAN_ANOMALY": 3.6258, "EPHEMERIS_TYPE": 0, "CLASSIFICATION_TYPE": "U", "NORAD_CAT_ID": 31007, "ELEMENT_SET_NO": 999, "REV_AT_EPOCH": 98291, "BSTAR": 0.0024558489, "MEAN_MOTION_DOT": 0.00011838, "MEAN_MOTION_DDOT": 0}, "tle": {"line1": "1 31007U 99025BCZ 25360.24126449  .00011838  00000+0  24558-2 0  9990", "line2": "2 31007  98.0887 351.6885 0066350 356.4462   3.6258 14.58925685982915"}}, "geometry": {"type": "Point", "coordinates": [131.99542297399302, -77.62634884608089]}}, {"type": "Feature", "properties": {"norad_id": 31009, "name": "FENGYUN 1C DEB", "group": "fengyun-1c-debris", "lat": 59.87101272064542, "lon": -19.241163376556045, "alt_km": 914.4135201237159, "timestamp": "2025-12-26T23:26:42.408030+00:00", "meta": {"OBJECT_NAME": "FENGYUN 1C DEB", "OBJECT_ID": "1999-025BDB", "EPOCH": "2025-12-26T11:46:00.990336", "MEAN_MOTION": 14.0036804, "ECCENTRICITY": 0.00533169, "INCLINATION": 98.8966, "RA_OF_ASC_NODE": 355.9432, "ARG_OF_PERICENTER": 198.4, "MEAN_ANOMALY": 291.4635, "EPHEMERIS_TYPE": 0, "CLASSIFICATION_TYPE": "U", "NORAD_CAT_ID": 31009, "ELEMENT_SET_NO": 999, "REV_AT_EPOCH": 96053, "BSTAR": 7.9467104e-05, "MEAN_MOTION_DOT": 7.6e-07, "MEAN_MOTION_DDOT": 0}, "tle": {"line1": "1 31009U 99025BDB 25360.49028924  .00000076  00000+0  79467-4 0  9991", "line2": "2 31009  98.8966 355.9432 0053316 198.4000 291.4635 14.00368040960531"}}, "geometry": {"type": "Point", "coordinates": [-19.241163376556045, 59.87101272064542]}}]}